              M50 Cartesian                         J2K Cartesian  
    -----------------------------------       --------------------------------
     X    =       -1754174.47                 X    =         -559882.30
     Y    =       14656606.17  feet           Y    =         4461212.90  meter
     Z    =      -16685512.95                 Z    =        -5088403.53
     XDOT =     -22708.997985                 XDOT =       -6881.737183
     YDOT =      -9132.416667  feet/sec       YDOT =       -2860.740400  meter/sec
     ZDOT =      -5622.256850                 ZDOT =       -1747.191440
 
              TDR Cartesian                         TDR Cartesian  
    -----------------------------------       --------------------------------
     X    =       -3686177.65                 X    =        -1123546.95
     Y    =      -14279309.99  feet           Y    =        -4352333.69  meter
     Z    =      -16697693.72                 Z    =        -5089457.05
     XDOT =      23397.579091                 XDOT =        7131.582107
     YDOT =        717.275144  feet/sec       YDOT =         218.625464  meter/sec
     ZDOT =      -5766.387762                 ZDOT =       -1757.594990
  
  
    The mean element set is posted at the UTC for which position is
    just north of the next ascending node relative to the above
    vector time
 
 
    TWO LINE MEAN ELEMENT SET
  
    ISS
    1 25544U 98067A   15286.51914155  .00016717  00000-0  10270-3 0  9011
    2 25544  51.6434 213.4397 0006736  30.7330 329.4216 15.54288462  6459
  
  
    Satellite: ISS
    Catalog Number: 25544
    Epoch time:      15286.51914155   =   yrday.fracday
    Element set:     901
    Inclination:       51.6434  deg
    RA of node:       213.4397  deg
    Eccentricity:     .0006736     
    Arg of perigee:    30.7330  deg
    Mean anomaly:     329.4216  deg
    Mean motion:   15.54288462  rev/day
    Decay rate:    1.67170E-04  rev/day^2
    Epoch rev:             645
    Checksum:              304
 
 
    Coasting Arc #3 (Orbit 660)
    ---------------------------------------
 
    Vector Time (GMT): 2015/287/12:00:00.000
    Vector Time (MET): N/A
    Weight (LBS)     : 907028.0
 
              M50 Cartesian                         M50 Keplerian  
    -----------------------------------       --------------------------------
     X    =        2217522.79                 A    =         6776773.70  meter
     Y    =       -3599524.68  meter          E    =           .0008552
     Z    =        5291230.11                 I    =           51.44932
     XDOT =       6703.942806                 Wp   =           45.57963
     YDOT =       3724.471490  meter/sec      RA   =          207.44881  deg
     ZDOT =       -269.750619                 TA   =           47.03242
                                              MA   =           46.96074
                                              Ha   =            222.550  n.mi
                                              Hp   =            212.760
 
              M50 Cartesian                         J2K Cartesian  
    -----------------------------------       --------------------------------
     X    =        7275337.23                 X    =         2231905.34
     Y    =      -11809464.16  feet           Y    =        -3574645.86  meter
     Z    =       17359678.85                 Z    =         5302037.99
     XDOT =      21994.563012                 XDOT =        6663.106980
     YDOT =      12219.394651  feet/sec       YDOT =        3799.211043  meter/sec
     ZDOT =       -885.008593                 ZDOT =        -237.283040
 
              TDR Cartesian                         TDR Cartesian  
    -----------------------------------       --------------------------------
     X    =       -2249093.98                 X    =         -685523.85
     Y    =       13627000.61  feet           Y    =         4153509.79  meter
     Z    =       17406862.32                 Z    =         5305611.63
     XDOT =     -23974.763005                 XDOT =       -7307.507764
     YDOT =      -2978.886334  feet/sec       YDOT =        -907.964555  meter/sec
     ZDOT =       -745.586079                 ZDOT =        -227.254637
  
  
    The mean element set is posted at the UTC for which position is
    just north of the next ascending node relative to the above
    vector time
 
 
    TWO LINE MEAN ELEMENT SET
  
    ISS
    1 25544U 98067A   15287.54786785  .00016717  00000-0  10270-3 0  9022
    2 25544  51.6434 208.3106 0006646  33.2589 326.8980 15.54329620  6613
  
  
    Satellite: ISS
    Catalog Number: 25544
    Epoch time:      15287.54786785   =   yrday.fracday
    Element set:     902
    Inclination:       51.6434  deg
    RA of node:       208.3106  deg
    Eccentricity:     .0006646     
    Arg of perigee:    33.2589  deg
    Mean anomaly:     326.8980  deg
    Mean motion:   15.54329620  rev/day
    Decay rate:    1.67170E-04  rev/day^2
    Epoch rev:             661
    Checksum:              329
 
 
    Coasting Arc #4 (Orbit 675)
    ---------------------------------------
 
    Vector Time (GMT): 2015/288/12:00:00.000
    Vector Time (MET): N/A
    Weight (LBS)     : 907028.0
 
              M50 Cartesian                         M50 Keplerian  
    -----------------------------------       --------------------------------
     X    =       -3816317.03                 A    =         6778386.62  meter
     Y    =        2674278.78  meter          E    =           .0016139
     Z    =       -4935714.53                 I    =           51.48363
     XDOT =      -5902.179648                 Wp   =           83.51353
     YDOT =      -4345.947384  meter/sec      RA   =          202.43584  deg
     ZDOT =       2216.894867                 TA   =          208.15889
                                              MA   =          208.24626
                                              Ha   =            222.734  n.mi
                                              Hp   =            212.517
 
              M50 Cartesian                         J2K Cartesian  
    -----------------------------------       --------------------------------
     X    =      -12520725.18                 X    =        -3821961.41
     Y    =        8773880.50  feet           Y    =         2631570.17  meter
     Z    =      -16193289.15                 Z    =        -4954267.86
     XDOT =     -19364.106456                 XDOT =       -5863.912640
     YDOT =     -14258.357559  feet/sec       YDOT =       -4411.735271  meter/sec
     ZDOT =       7273.277122                 ZDOT =        2188.315920
 
              TDR Cartesian                         TDR Cartesian  
    -----------------------------------       --------------------------------
     X    =        8033754.63                 X    =         2448688.41
     Y    =      -12907226.18  feet           Y    =        -3934122.54  meter
     Z    =      -16273734.98                 Z    =        -4960234.42
     XDOT =      22483.311286                 XDOT =        6852.913280
     YDOT =       5011.407830  feet/sec       YDOT =        1527.477107  meter/sec
     ZDOT =       7150.711353                 ZDOT =        2179.536820
  
  
    The mean element set is posted at the UTC for which position is
    just north of the next ascending node relative to the above
    vector time
 
 
    TWO LINE MEAN ELEMENT SET
  
    ISS
    1 25544U 98067A   15288.51229033  .00016717  00000-0  10270-3 0  9039
    2 25544  51.6437 203.5013 0006738  37.3564 322.8056 15.54312432  6769
  
  
    Satellite: ISS
    Catalog Number: 25544
    Epoch time:      15288.51229033   =   yrday.fracday
    Element set:     903
    Inclination:       51.6437  deg
    RA of node:       203.5013  deg
    Eccentricity:     .0006738     
    Arg of perigee:    37.3564  deg
    Mean anomaly:     322.8056  deg
    Mean motion:   15.54312432  rev/day
    Decay rate:    1.67170E-04  rev/day^2
    Epoch rev:             676
    Checksum:              292
 
 
    Coasting Arc #5 (Orbit 691)
    ---------------------------------------
 
    Vector Time (GMT): 2015/289/12:00:00.000
    Vector Time (MET): N/A
    Weight (LBS)     : 907028.0
 
              M50 Cartesian                         M50 Keplerian  
    -----------------------------------       --------------------------------
     X    =        5210955.57                 A    =         6781883.63  meter
     Y    =       -1688220.90  meter          E    =           .0016678
     Z    =        3991047.38                 I    =           51.52476
     XDOT =       4572.264914                 Wp   =           64.70637
     YDOT =       4726.527239  meter/sec      RA   =          197.43271  deg
     ZDOT =      -3950.584933                 TA   =           66.51241
                                              MA   =           66.33721
                                              Ha   =            222.716  n.mi
                                              Hp   =            212.484
 
              M50 Cartesian                         J2K Cartesian  
    -----------------------------------       --------------------------------
     X    =       17096310.91                 X    =         5210058.90
     Y    =       -5538782.47  feet           Y    =        -1629953.25  meter
     Z    =       13093987.46                 Z    =         4016359.74
     XDOT =      15000.869140                 XDOT =        4538.262823
     YDOT =      15506.979129  feet/sec       YDOT =        4777.466883  meter/sec
     ZDOT =     -12961.236656                 ZDOT =       -3928.456213
 
